{
  "norad_id": 63774,
  "name": "STARLINK-33914",
  "history": [
    {
      "epoch": "2026-05-04T14:26:59.243712Z",
      "apogee_km": 483.836301378612,
      "perigee_km": 482.28841480342635,
      "latitude_deg": -1.4129453532447991e-05,
      "longitude_deg": 6.304179590565775,
      "height_km": 482.468771386617,
      "semi_major_axis_km": 6861.199358091019,
      "eccentricity": 0.0001128,
      "inclination_deg": 42.9966,
      "raan_deg": 85.5401,
      "arg_perigee_deg": 61.6434,
      "mean_anomaly_deg": 298.4531,
      "mean_motion_rev_day": 15.27575571
    },
    {
      "epoch": "2026-05-05T06:08:32.391744Z",
      "apogee_km": 484.27301971301404,
      "perigee_km": 481.75909323312226,
      "latitude_deg": -3.0839084802137e-06,
      "longitude_deg": 126.57710239916231,
      "height_km": 483.0157067286035,
      "semi_major_axis_km": 6861.153056473068,
      "eccentricity": 0.0001832,
      "inclination_deg": 43.0012,
      "raan_deg": 81.8456,
      "arg_perigee_deg": 259.803,
      "mean_anomaly_deg": 100.2615,
      "mean_motion_rev_day": 15.27591034
    },
    {
      "epoch": "2026-05-06T21:22:26.973408Z",
      "apogee_km": 484.0102836330225,
      "perigee_km": 482.2002879180345,
      "latitude_deg": -3.379349254161795e-05,
      "longitude_deg": -112.74225414880793,
      "height_km": 482.86758161560493,
      "semi_major_axis_km": 6861.242285775528,
      "eccentricity": 0.0001319,
      "inclination_deg": 43.0021,
      "raan_deg": 72.6149,
      "arg_perigee_deg": 270.9231,
      "mean_anomaly_deg": 89.1469,
      "mean_motion_rev_day": 15.27561235
    },
    {
      "epoch": "2026-05-07T20:54:48.260160Z",
      "apogee_km": 483.87310053203237,
      "perigee_km": 482.22504363751887,
      "latitude_deg": -2.1576268122721574e-05,
      "longitude_deg": -112.33566184600969,
      "height_km": 482.76927307119934,
      "semi_major_axis_km": 6861.186072084775,
      "eccentricity": 0.0001201,
      "inclination_deg": 43.0019,
      "raan_deg": 67.0769,
      "arg_perigee_deg": 273.9353,
      "mean_anomaly_deg": 86.1361,
      "mean_motion_rev_day": 15.27580008
    },
    {
      "epoch": "2026-05-08T20:27:09.531360Z",
      "apogee_km": 483.98193847705534,
      "perigee_km": 482.1692061154545,
      "latitude_deg": -1.5017226338634323e-05,
      "longitude_deg": -111.9307100162491,
      "height_km": 483.0301647361295,
      "semi_major_axis_km": 6861.212572296255,
      "eccentricity": 0.0001321,
      "inclination_deg": 43.0016,
      "raan_deg": 61.5372,
      "arg_perigee_deg": 258.6856,
      "mean_anomaly_deg": 101.3847,
      "mean_motion_rev_day": 15.27571158
    }
  ]
}